[{"OBJECT_NAME":"STARLINK-5884","OBJECT_ID":"2023-037AV","EPOCH":"2026-03-09T21:40:59.689632","MEAN_MOTION":14.98332178,"ECCENTRICITY":0.00026805,"INCLINATION":69.9978,"RA_OF_ASC_NODE":263.9786,"ARG_OF_PERICENTER":272.5548,"MEAN_ANOMALY":87.5304,"EPHEMERIS_TYPE":0,"CLASSIFICATION_TYPE":"U","NORAD_CAT_ID":55957,"ELEMENT_SET_NO":999,"REV_AT_EPOCH":16450,"BSTAR":0.00011589362,"MEAN_MOTION_DOT":1.29e-5,"MEAN_MOTION_DDOT":0},{"OBJECT_NAME":"VELOX-PII","OBJECT_ID":"2013-066Y","EPOCH":"2026-03-09T19:57:03.071520","MEAN_MOTION":14.92474173,"ECCENTRICITY":0.00523549,"INCLINATION":97.8641,"RA_OF_ASC_NODE":20.1898,"ARG_OF_PERICENTER":313.6731,"MEAN_ANOMALY":46.0154,"EPHEMERIS_TYPE":0,"CLASSIFICATION_TYPE":"U","NORAD_CAT_ID":39438,"ELEMENT_SET_NO":999,"REV_AT_EPOCH":66301,"BSTAR":0.00044125176,"MEAN_MOTION_DOT":4.587e-5,"MEAN_MOTION_DDOT":0}]
